[{"OBJECT_NAME":"ZHUHAI-1 03C","OBJECT_ID":"2019-060D","EPOCH":"2026-03-09T23:14:25.268928","MEAN_MOTION":15.71109528,"ECCENTRICITY":0.00111308,"INCLINATION":97.5515,"RA_OF_ASC_NODE":231.2826,"ARG_OF_PERICENTER":267.4607,"MEAN_ANOMALY":92.5381,"EPHEMERIS_TYPE":0,"CLASSIFICATION_TYPE":"U","NORAD_CAT_ID":44537,"ELEMENT_SET_NO":999,"REV_AT_EPOCH":36152,"BSTAR":0.00082474362,"MEAN_MOTION_DOT":0.00104963,"MEAN_MOTION_DDOT":0},{"OBJECT_NAME":"STARLINK-11300 [DTC]","OBJECT_ID":"2024-175A","EPOCH":"2026-03-09T22:16:52.281696","MEAN_MOTION":15.69730555,"ECCENTRICITY":0.00013221,"INCLINATION":53.1587,"RA_OF_ASC_NODE":55.113,"ARG_OF_PERICENTER":91.9202,"MEAN_ANOMALY":268.1968,"EPHEMERIS_TYPE":0,"CLASSIFICATION_TYPE":"U","NORAD_CAT_ID":61243,"ELEMENT_SET_NO":999,"REV_AT_EPOCH":8340,"BSTAR":0.00010182147,"MEAN_MOTION_DOT":0.00011774,"MEAN_MOTION_DDOT":0}]
